[{"OBJECT_NAME":"SITRO-AIS 23","OBJECT_ID":"2024-199H","EPOCH":"2026-03-09T22:39:00.533088","MEAN_MOTION":14.95417613,"ECCENTRICITY":0.001348,"INCLINATION":97.3327,"RA_OF_ASC_NODE":273.3902,"ARG_OF_PERICENTER":42.7028,"MEAN_ANOMALY":317.5239,"EPHEMERIS_TYPE":0,"CLASSIFICATION_TYPE":"U","NORAD_CAT_ID":61742,"ELEMENT_SET_NO":999,"REV_AT_EPOCH":11693,"BSTAR":0.00028445892,"MEAN_MOTION_DOT":3.096e-5,"MEAN_MOTION_DDOT":0},{"OBJECT_NAME":"PEGASUS DEB","OBJECT_ID":"1994-029HA","EPOCH":"2026-03-09T23:24:25.255584","MEAN_MOTION":14.63404483,"ECCENTRICITY":0.01500929,"INCLINATION":82.0155,"RA_OF_ASC_NODE":285.4989,"ARG_OF_PERICENTER":359.7738,"MEAN_ANOMALY":0.3369,"EPHEMERIS_TYPE":0,"CLASSIFICATION_TYPE":"U","NORAD_CAT_ID":24151,"ELEMENT_SET_NO":999,"REV_AT_EPOCH":57839,"BSTAR":0.00022474873,"MEAN_MOTION_DOT":1.39e-5,"MEAN_MOTION_DDOT":0}]
